stk.v.4.3 

BEGIN Ephemeris 
 
NumberOfEphemerisPoints		146 
ScenarioEpoch	    2 Jan 2020 12: 6:30.156483650 
InterpolationMethod		Lagrange 
InterpolationOrder		5 
CentralBody				Earth 
CoordinateSystem			TEME 
CoordinateSystemEpoch	  2 Jan 2020 12: 6:30.156483650 
DistanceUnit			Kilometers 
 
EphemerisTimePosVel 
 
       0.00000000    7087.10080645    -772.94428112       0.04167614  0.040755207  0.461246912  7.464567396
 END Ephemeris 
